ONEWEB-0549             
1 56051U 23043F   25278.06821970  .00000043  00000+0  72125-4 0  9993
2 56051  87.9179 294.8965 0001934 100.7356 259.3996 13.21825963124529
ONEWEB-0550             
1 56052U 23043G   25278.05560017  .00000124  00000+0  26792-3 0  9993
2 56052  87.9174 294.8939 0001855  87.7724 272.3623 13.21826350124524
ONEWEB-0551             
1 56053U 23043H   25278.05895844  .00000078  00000+0  17404-3 0  9991
2 56053  87.8990 310.1510 0001830 102.2285 257.9050 13.15547761122851
ONEWEB-0552             
1 56054U 23043J   25278.12496691  .00000048  00000+0  85639-4 0  9990
2 56054  87.9173 294.8884 0001660  99.4749 260.6573 13.21827186124538
ONEWEB-0553             
1 56055U 23043K   25278.06014102  .00000078  00000+0  16985-3 0  9997
2 56055  87.8969 279.6094 0002154  82.6322 277.5054 13.16593316125402
ONEWEB-0554             
1 56056U 23043L   25278.04748138  .00000064  00000+0  13298-3 0  9998
2 56056  87.8957 279.6346 0001776  82.9740 277.1593 13.16595120125382
ONEWEB-0555             
1 56057U 23043M   25278.00947113  .00000166  00000+0  40119-3 0  9994
2 56057  87.8973 279.6143 0002358  81.3261 278.8137 13.16593804125383
ONEWEB-0557             
1 56058U 23043N   25278.02371961  .00000058  00000+0  11730-3 0  9996
2 56058  87.8959 279.6276 0002262  54.1289 306.0052 13.16594406125386
